{
  "norad_id": 66462,
  "name": "STARLINK-35499",
  "history": [
    {
      "epoch": "2026-03-28T14:40:43.148064Z",
      "apogee_km": 483.9903936551518,
      "perigee_km": 481.9125816175565,
      "latitude_deg": -3.062607648929413e-05,
      "longitude_deg": 142.81451710181386,
      "height_km": 482.7890530724038,
      "semi_major_axis_km": 6861.088487636354,
      "eccentricity": 0.00015142,
      "inclination_deg": 43.003,
      "raan_deg": 189.0239,
      "arg_perigee_deg": 266.6645,
      "mean_anomaly_deg": 93.4033,
      "mean_motion_rev_day": 15.27612598
    }
  ]
}