{"fetched_at":"2026-03-30T09:12:31Z","count":15922,"tles":[{"name":"STARLINK-35499","line1":"1 66462U 25262G   26087.61161051  .00035560  00000+0  12942-2 0  9993","line2":"2 66462  43.0030 189.0239 0001514 266.6645  93.4033 15.27612598 21803","category":"Starlink"}]}